NORAD_CAT_ID,OBJECT_NAME,OBJECT_TYPE,EPOCH,MEAN_MOTION,ECCENTRICITY,INCLINATION,RA_OF_ASC_NODE,ARG_OF_PERICENTER,MEAN_ANOMALY,BSTAR,MEAN_MOTION_DOT,MEAN_MOTION_DDOT,TLE_LINE0,TLE_LINE1,TLE_LINE2,SEMIMAJOR_AXIS,PERIOD,APOGEE,PERIGEE,DECAYED
56808.0,STARLINK-6042,PAYLOAD,2023-06-06 16:00:03,15.91295883,0.0027501,70.004,35.8042,161.8979,106.6518,-0.0031751,-0.01051795,0.00032945,0 STARLINK-6042,1 56808U 23078AT  23157.66670139 -.01051795  32945-3 -31751-2 0  9998,2 56808  70.0040  35.8042 0027501 161.8979 106.6518 15.91295883  1300,6676.793,90.492,317.019,280.296,0.0
56808.0,STARLINK-6042,PAYLOAD,2023-06-06 22:00:00,15.90751527,0.0024875,70.0039,35.0792,162.191,97.7213,-0.003018,-0.00966434,0.0002802,0 STARLINK-6042,1 56808U 23078AT  23157.91667824 -.00966434  28020-3 -30180-2 0  9991,2 56808  70.0039  35.0792 0024875 162.1910  97.7213 15.90751527  1305,6678.316,90.523,316.793,283.568,0.0
56808.0,STARLINK-6042,PAYLOAD,2023-06-07 07:28:40,15.90302241,0.002416,70.0037,33.9357,164.5025,195.6927,-0.00056103,-0.0017686,1.4176e-05,0 STARLINK-6042,1 56808U 23078AT  23158.31158153 -.00176860  14176-4 -56103-3 0  9994,2 56808  70.0037  33.9357 0024160 164.5025 195.6927 15.90302241  1144,6679.573,90.549,317.576,285.301,0.0
56808.0,STARLINK-6042,PAYLOAD,2023-06-07 12:00:00,15.89615587,0.0019748,70.0031,33.3893,164.6224,193.6661,-0.0032034,-0.00958062,0.00027266,0 STARLINK-6042,1 56808U 23078AT  23158.50001157 -.00958062  27266-3 -32034-2 0  9997,2 56808  70.0031  33.3893 0019748 164.6224 193.6661 15.89615587  1438,6681.497,90.588,316.556,290.167,0.0
56808.0,STARLINK-6042,PAYLOAD,2023-06-07 20:00:01,15.88966388,0.00165,70.0031,32.4251,165.9132,298.9571,-0.0034238,-0.0098567,0.00028557,0 STARLINK-6042,1 56808U 23078AT  23158.83334491 -.00985670  28557-3 -34238-2 0  9990,2 56808  70.0031  32.4251 0016500 165.9132 298.9571 15.88966388  1482,6683.317,90.625,316.209,294.154,0.0
56808.0,STARLINK-6042,PAYLOAD,2023-06-07 22:00:00,15.88782029,0.0015802,70.003,32.1841,166.1493,55.2471,-0.0032972,-0.00939883,0.00026103,0 STARLINK-6042,1 56808U 23078AT  23158.91667824 -.00939883  26103-3 -32972-2 0  9991,2 56808  70.0030  32.1841 0015802 166.1493  55.2471 15.88782029  1302,6683.834,90.635,316.26,295.137,0.0
56808.0,STARLINK-6042,PAYLOAD,2023-06-08 04:00:00,15.88333009,0.0013452,70.0023,31.4615,168.1847,42.4648,-0.0036469,-0.0101298,0.00029856,0 STARLINK-6042,1 56808U 23078AT  23159.16667824 -.01012980  29856-3 -36469-2 0  9993,2 56808  70.0023  31.4615 0013452 168.1847  42.4648 15.88333009  1538,6685.093,90.661,315.951,297.965,0.0
56808.0,STARLINK-6042,PAYLOAD,2023-06-08 12:00:00,15.87668202,0.0011004,70.0025,30.4989,173.5192,142.1384,-0.0036363,-0.00975104,0.00027646,0 STARLINK-6042,1 56808U 23078AT  23159.50001157 -.00975104  27646-3 -36363-2 0  9995,2 56808  70.0025  30.4989 0011004 173.5192 142.1384 15.87668202  1593,6686.959,90.699,316.183,301.466,0.0
56808.0,STARLINK-6042,PAYLOAD,2023-06-08 12:11:14,15.87880841,0.0010397,70.0028,30.4765,173.5884,186.5456,-0.00036232,-0.00099555,7.0622e-06,0 STARLINK-6042,1 56808U 23078AT  23159.50781096 -.00099555  70622-5 -36232-3 0  9999,2 56808  70.0028  30.4765 0010397 173.5884 186.5456 15.87880841  1339,6686.362,90.687,315.179,301.275,0.0
56808.0,STARLINK-6042,PAYLOAD,2023-06-08 20:00:01,15.87022185,0.0007989,70.0028,29.5372,180.4204,239.5372,-0.0039023,-0.00917476,0.0,0 STARLINK-6042,1 56808U 23078AT  23159.83335648 -.00917476  00000-0 -39023-2 0  9992,2 56808  70.0028  29.5372 0007989 180.4204 239.5372 15.87022185  1647,6688.774,90.736,315.982,305.295,0.0
56808.0,STARLINK-6042,PAYLOAD,2023-06-08 22:00:00,15.86819284,0.0007265,70.0027,29.297,181.7124,354.1249,-0.0036065,-0.00845618,0.0,0 STARLINK-6042,1 56808U 23078AT  23159.91667824 -.00845618  00000-0 -36065-2 0  9996,2 56808  70.0027  29.2970 0007265 181.7124 354.1249 15.86819284  1302,6689.344,90.748,316.069,306.349,0.0
56808.0,STARLINK-6042,PAYLOAD,2023-06-09 04:00:00,15.86380031,0.0005241,70.0025,28.5765,194.579,328.7489,-0.0040681,-0.00923682,0.0,0 STARLINK-6042,1 56808U 23078AT  23160.16667824 -.00923682  00000-0 -40681-2 0  9992,2 56808  70.0025  28.5765 0005241 194.5790 328.7489 15.86380031  1695,6690.579,90.773,315.95,308.937,0.0
56808.0,STARLINK-6042,PAYLOAD,2023-06-09 12:00:02,15.85703673,0.0004043,70.0031,27.6168,221.0531,45.0055,-0.003948,-0.00871641,0.0,0 STARLINK-6042,1 56808U 23078AT  23160.50002315 -.00871641  00000-0 -39480-2 0  9990,2 56808  70.0031  27.6168 0004043 221.0531  45.0055 15.85703673  1752,6692.481,90.811,317.052,311.64,0.0
56808.0,STARLINK-6042,PAYLOAD,2023-06-09 13:54:37,15.85832004,0.0005154,70.0033,27.3876,191.9595,168.1488,-0.00039184,-0.00095158,0.0,0 STARLINK-6042,1 56808U 23078AT  23160.57959610 -.00095158  00000-0 -39184-3 0  9999,2 56808  70.0033  27.3876 0005154 191.9595 168.1488 15.85832004  1507,6692.12,90.804,317.434,310.536,0.0
56808.0,STARLINK-6042,PAYLOAD,2023-06-09 20:00:01,15.850656,0.0003513,70.0036,26.6579,255.7675,112.1094,-0.0042911,-0.00913788,0.0,0 STARLINK-6042,1 56808U 23078AT  23160.83334491 -.00913788  00000-0 -42911-2 0  9991,2 56808  70.0036  26.6579 0003513 255.7675 112.1094 15.85065600  1802,6694.277,90.848,318.494,313.79,0.0
56808.0,STARLINK-6042,PAYLOAD,2023-06-09 22:00:00,15.84881763,0.0003322,70.0035,26.4185,262.5389,220.6899,-0.0041123,-0.00872034,0.0,0 STARLINK-6042,1 56808U 23078AT  23160.91667824 -.00872034  00000-0 -41123-2 0  9991,2 56808  70.0035  26.4185 0003322 262.5389 220.6899 15.84881763  1306,6694.795,90.859,318.884,314.436,0.0
56808.0,STARLINK-6042,PAYLOAD,2023-06-10 04:00:01,15.84440058,0.0003437,70.0031,25.7,270.9456,198.0838,-0.0046192,-0.0095037,0.0,0 STARLINK-6042,1 56808U 23078AT  23161.16668981 -.00950370  00000-0 -46192-2 0  9995,2 56808  70.0031  25.7000 0003437 270.9456 198.0838 15.84440058  1854,6696.039,90.884,320.205,315.602,0.0
56808.0,STARLINK-6042,PAYLOAD,2023-06-10 12:00:02,15.83741716,0.00035,70.0032,24.7433,263.2191,306.1361,-0.0042899,-0.00862361,0.0,0 STARLINK-6042,1 56808U 23078AT  23161.50002315 -.00862361  00000-0 -42899-2 0  9998,2 56808  70.0032  24.7433 0003500 263.2191 306.1361 15.83741716  1909,6698.007,90.924,322.216,317.528,0.0
56808.0,STARLINK-6042,PAYLOAD,2023-06-10 14:00:01,15.83614155,0.0003665,70.0033,24.5044,263.9781,60.2555,-0.0046193,-0.00917229,0.0,0 STARLINK-6042,1 56808U 23078AT  23161.58334491 -.00917229  00000-0 -46193-2 0  9994,2 56808  70.0033  24.5044 0003665 263.9781  60.2555 15.83614155  1303,6698.367,90.931,322.687,317.777,0.0
56808.0,STARLINK-6042,PAYLOAD,2023-06-10 20:00:01,15.83104311,0.0003676,70.0033,23.7875,267.2696,41.5585,-0.0046969,-0.0091099,0.0,0 STARLINK-6042,1 56808U 23078AT  23161.83334491 -.00910990  00000-0 -46969-2 0  9991,2 56808  70.0033  23.7875 0003676 267.2696  41.5585 15.83104311  1965,6699.805,90.961,324.133,319.207,0.0
56808.0,STARLINK-6042,PAYLOAD,2023-06-10 22:00:00,15.82924888,0.0003676,70.0031,23.5487,271.0875,152.5034,-0.0045437,-0.00877244,0.0,0 STARLINK-6042,1 56808U 23078AT  23161.91667824 -.00877244  00000-0 -45437-2 0  9992,2 56808  70.0031  23.5487 0003676 271.0875 152.5034 15.82924888  1300,6700.311,90.971,324.639,319.713,0.0
56808.0,STARLINK-6042,PAYLOAD,2023-06-11 14:00:01,15.81663777,0.0003689,70.003,21.6398,264.3076,355.5883,-0.005133,-0.00928477,0.0,0 STARLINK-6042,1 56808U 23078AT  23162.58334491 -.00928477  00000-0 -51330-2 0  9991,2 56808  70.0030  21.6398 0003689 264.3076 355.5883 15.81663777  1304,6703.872,91.043,328.21,323.264,0.0
56808.0,STARLINK-6042,PAYLOAD,2023-06-11 20:00:01,15.81137032,0.0003711,70.003,20.9249,269.7651,332.9693,-0.0050477,-0.0089449,0.0,0 STARLINK-6042,1 56808U 23078AT  23162.83334491 -.00894490  00000-0 -50477-2 0  9997,2 56808  70.0030  20.9249 0003711 269.7651 332.9693 15.81137032  2113,6705.361,91.074,329.714,324.738,0.0
56808.0,STARLINK-6042,PAYLOAD,2023-06-12 12:00:00,15.7983316,0.0003574,70.0032,19.0213,268.1057,166.6442,-0.0052029,-0.0087055,0.0,0 STARLINK-6042,1 56808U 23078AT  23163.50001157 -.00870550  00000-0 -52029-2 0  9998,2 56808  70.0032  19.0213 0003574 268.1057 166.6442 15.79833160  2223,6709.05,91.149,333.313,328.517,0.0
56808.0,STARLINK-6042,PAYLOAD,2023-06-12 20:00:01,15.79171979,0.0003464,70.0035,18.0709,271.9431,257.657,-0.0054122,-0.00877832,0.0,0 STARLINK-6042,1 56808U 23078AT  23163.83334491 -.00877832  00000-0 -54122-2 0  9990,2 56808  70.0035  18.0709 0003464 271.9431 257.6570 15.79171979  2272,6710.922,91.187,335.112,330.463,0.0
56808.0,STARLINK-6042,PAYLOAD,2023-06-12 22:00:00,15.79000506,0.0003506,70.0035,17.8335,272.3688,10.8173,-0.005292,-0.00854069,0.0,0 STARLINK-6042,1 56808U 23078AT  23163.91667824 -.00854069  00000-0 -52920-2 0  9999,2 56808  70.0035  17.8335 0003506 272.3688  10.8173 15.79000506  1308,6711.408,91.197,335.626,330.92,0.0
56808.0,STARLINK-6042,PAYLOAD,2023-06-13 12:00:00,15.77888308,0.0003539,70.0029,16.1728,267.3471,89.5674,-0.005807,-0.00887737,0.0,0 STARLINK-6042,1 56808U 23078AT  23164.50001157 -.00887737  00000-0 -58070-2 0  9996,2 56808  70.0029  16.1728 0003539 267.3471  89.5674 15.77888308  2389,6714.562,91.261,338.803,334.05,0.0
56808.0,STARLINK-6042,PAYLOAD,2023-06-13 14:00:01,15.77758145,0.0003394,70.0031,15.9358,268.151,201.9505,-0.006244,-0.00942702,0.0,0 STARLINK-6042,1 56808U 23078AT  23164.58334491 -.00942702  00000-0 -62440-2 0  9994,2 56808  70.0031  15.9358 0003394 268.1510 201.9505 15.77758145  1309,6714.931,91.269,339.075,334.517,0.0
56808.0,STARLINK-6042,PAYLOAD,2023-06-13 22:00:00,15.77049878,0.0003324,70.0026,14.9883,273.0299,289.3899,-0.0058351,-0.0086172,0.0,0 STARLINK-6042,1 56808U 23078AT  23164.91667824 -.00861720  00000-0 -58351-2 0  9996,2 56808  70.0026  14.9883 0003324 273.0299 289.3899 15.77049878  1309,6716.941,91.31,341.039,336.574,0.0
